
STARLINK-4115           
1 53032U 22076AY  24337.75780334 -.00001922  00000+0 -10268-3 0  9991
2 53032  53.2161 357.8117 0001607  92.0835 268.0341 15.08848067133251
STARLINK-4167           
1 53033U 22076AZ  24337.73296997 -.00006072  00000+0 -36357-3 0  9995
2 53033  53.2227 347.9198 0000707  93.3297 266.7776 15.08859004133384
STARLINK-4151           
1 53034U 22076BA  24337.74127806  .00003230  00000+0  22083-3 0  9991
2 53034  53.2164 347.9338 0001511  84.9506 275.1659 15.08856727133387
STARLINK-4157           
1 53035U 22076BB  24337.72559810 -.00001343  00000+0 -66257-4 0  9991
2 53035  53.2181 347.9544 0001288  99.6832 260.4305 15.08856775133380
STARLINK-4155           
1 53036U 22076BC  24337.45696834  .00000086  00000+0  23509-4 0  9994
2 53036  53.2157 349.1636 0001734  88.3691 271.7500 15.08837541133342
STARLINK-4153           
1 53037U 22076BD  24337.32080845  .00001533  00000+0  11441-3 0  9999
2 53037  53.2154 349.7724 0002131  95.6694 264.4541 15.08834124133326
STARLINK-4156           
1 53038U 22076BE  24337.31712549 -.00001001  00000+0 -44766-4 0  9991
2 53038  53.2145 349.7875 0001823 107.2804 252.8387 15.08847407133321
STARLINK-4362           
1 53043U 22077A   24337.74187625  .00000053  00000+0  87272-5 0  9990
2 53043  97.6523 156.1606 0001575 220.7690 139.3416 15.01259614131611
STARLINK-4349           
1 53044U 22077B   24337.73817153  .00000481  00000+0  42003-4 0  9993
2 53044  97.6522 156.1566 0001330 224.4341 135.6777 15.01261104131615
STARLINK-4350           
1 53045U 22077C   24337.74372928  .00001463  00000+0  11843-3 0  9999
2 53045  97.6522 156.1469 0000525 196.1765 163.9442 15.01263167131612
STARLINK-4331           
1 53046U 22077D   24337.74214598 -.00001470  00000+0 -10993-3 0  9993
2 53046  97.6536 156.1482 0001790 232.4381 127.6680 15.01243938131611
STARLINK-4352           
1 53047U 22077E   24337.78840656  .00001112  00000+0  91164-4 0  9999
2 53047  97.6592 156.2513 0000567  94.3552 265.7737 15.01260892131622
STARLINK-4355           
1 53048U 22077F   24334.93531618  .00000263  00000+0  25106-4 0  9998
2 53048  97.6555 153.3956 0001843 212.2464 147.8648 15.01260766131184
STARLINK-4345           
1 53049U 22077G   24337.46045689  .00001608  00000+0  12978-3 0  9994
2 53049  97.6600 155.8946 0000531 177.8022 182.3205 15.01255089131568
STARLINK-4343           
1 53050U 22077H   24337.26605380 -.00000559  00000+0 -38951-4 0  9990
2 53050  97.6557 155.6941 0001567 180.0927 180.0297 15.01268718131530
STARLINK-4336           
1 53051U 22077J   24337.46787142  .00000429  00000+0  38007-4 0  9996
2 53051  97.6551 155.8759 0001961 185.4988 174.6215 15.01257311131567
STARLINK-4341           
1 53052U 22077K   24336.93093819  .00000282  00000+0  26550-4 0  9996
2 53052  97.6556 155.3636 0001543 205.1918 154.9231 15.01265708132065
STARLINK-4337           
1 53053U 22077L   24337.79001641  .00000847  00000+0  70511-4 0  9997
2 53053  97.6579 156.2218 0000509 102.7856 257.3425 15.01261694131614
STARLINK-4339           
1 53054U 22077M   24337.46231308  .00000175  00000+0  18205-4 0  9993
2 53054  97.6569 155.8905 0001564  78.0349 282.1050 15.01259955131567
STARLINK-4338           
1 53055U 22077N   24337.25494996  .00001259  00000+0  10262-3 0  9993
2 53055  97.6584 155.6956 0001811  89.3623 270.7809 15.01254624131534
STARLINK-4314           
1 53056U 22077P   24337.92517716 -.00000401  00000+0 -26597-4 0  9993
2 53056  97.6570 156.3500 0000942 101.0304 259.1026 15.01269876131633
STARLINK-4252           
1 53057U 22077Q   24337.78444903  .00002323  00000+0  18531-3 0  9996
2 53057  97.6566 156.2206 0001990  81.4931 278.6519 15.01272368131613
STARLINK-4317           
1 53058U 22077R   24337.73657140  .00000037  00000+0  74655-5 0  9992
2 53058  97.6535 156.1215 0002062 174.8893 185.2352 15.01260319131604
STARLINK-4320           
1 53059U 22077S   24337.78101047  .00000258  00000+0  24657-4 0  9999
2 53059  97.6557 156.2186 0002509  76.1371 284.0132 15.01258767131617
STARLINK-4305           
1 53060U 22077T   24337.91962065  .00002139  00000+0  17113-3 0  9999
2 53060  97.6585 156.3529 0001819  82.2041 277.9390 15.01253154131631
STARLINK-4308           
1 53061U 22077U   24337.77891502 -.00000765  00000+0 -54964-4 0  9992
2 53061  97.6544 156.2166 0003090  59.4639 300.6890 15.01276801131616
STARLINK-4311           
1 53062U 22077V   24337.78261442  .00000806  00000+0  67350-4 0  9995
2 53062  97.6575 156.2197 0002359  69.2376 290.9101 15.01262142131618
STARLINK-4307           
1 53063U 22077W   24337.73631996  .00006591  00000+0  51726-3 0  9992
2 53063  97.6545 156.1742 0000665 230.2117 129.9049 15.01262174131619
STARLINK-4313           
1 53064U 22077X   24337.78076661  .00000076  00000+0  10494-4 0  9990
2 53064  97.6519 156.2176 0002635  83.0012 277.1512 15.01258680131618
STARLINK-4312           
1 53065U 22077Y   24337.77523716 -.00003923  00000+0 -30118-3 0  9998
2 53065  97.6697 156.2184 0002596  56.7129 303.4343 15.01235184131616
STARLINK-4309           
1 53066U 22077Z   24337.77360586  .00001036  00000+0  85261-4 0  9994
2 53066  97.6520 156.2183 0003996  61.3277 298.8348 15.01260334131619
STARLINK-4306           
1 53067U 22077AA  24337.43824657  .00000150  00000+0  16276-4 0  9998
2 53067  97.6550 155.8798 0003309  56.0127 304.1412 15.01260278131567
STARLINK-4325           
1 53068U 22077AB  24337.77707148  .00000441  00000+0  38889-4 0  9998
2 53068  97.6547 156.2067 0003993  73.3058 286.8604 15.01266718131612
STARLINK-4323           
1 53069U 22077AC  24337.76782372 -.00002638  00000+0 -20085-3 0  9990
2 53069  97.6549 156.2006 0003828  69.0382 291.1252 15.01253710131613
STARLINK-4342           
1 53070U 22077AD  24337.77335658  .00001063  00000+0  87336-4 0  9996
2 53070  97.6514 156.2099 0002396  44.1344 316.0071 15.01259934131610
STARLINK-4328           
1 53071U 22077AE  24337.76595019  .00001047  00000+0  86060-4 0  9990
2 53071  97.6560 156.1972 0002939  41.5933 318.5514 15.01261644131619
STARLINK-4344           
1 53072U 22077AF  24337.76225701 -.00004477  00000+0 -34403-3 0  9994
2 53072  97.6536 156.2067 0002477  75.6048 284.5451 15.01278100131618
STARLINK-4346           
1 53073U 22077AG  24337.76619666  .00000311  00000+0  28782-4 0  9997
2 53073  97.6531 156.1885 0003291  52.2571 307.8951 15.01261589131615
STARLINK-4310           
1 53074U 22077AH  24337.76965694  .00002448  00000+0  19502-3 0  9995
2 53074  97.6481 156.1932 0003900  37.5480 322.6016 15.01275979131610
STARLINK-4348           
1 53075U 22077AJ  24337.76410149  .00000910  00000+0  75402-4 0  9990
2 53075  97.6529 156.1809 0002777  54.4740 305.6742 15.01259597131610
STARLINK-4347           
1 53076U 22077AK  24337.89579900  .00000359  00000+0  32560-4 0  9991
2 53076  97.6537 156.3252 0001936  58.2712 301.8701 15.01256072131631
STARLINK-4322           
1 53078U 22077AM  24337.76039779  .00000370  00000+0  33405-4 0  9996
2 53078  97.6546 156.1865 0001574  71.4776 288.6619 15.01256206131613
STARLINK-4327           
1 53079U 22077AN  24337.75484194  .00000428  00000+0  37889-4 0  9995
2 53079  97.6548 156.1791 0001632  95.9707 264.1703 15.01257002131612
STARLINK-4330           
1 53080U 22077AP  24337.75854302  .00000835  00000+0  69608-4 0  9995
2 53080  97.6517 156.1834 0001752  82.2021 277.9402 15.01261965131610
STARLINK-4326           
1 53081U 22077AQ  24337.75883159 -.00002177  00000+0 -16508-3 0  9991
2 53081  97.6581 156.1678 0002684  84.2620 275.8910 15.01228732131616
STARLINK-4321           
1 53082U 22077AR  24337.88630863  .00009028  00000+0  70621-3 0  9994
2 53082  97.6537 156.3084 0001159  86.8429 273.2928 15.01279405131638
STARLINK-4251           
1 53083U 22077AS  24337.74002416  .00000180  00000+0  18601-4 0  9998
2 53083  97.6536 156.1591 0000869 235.3422 124.7721 15.01260810131619
STARLINK-4319           
1 53084U 22077AT  24337.75113382  .00000910  00000+0  75448-4 0  9998
2 53084  97.6537 156.1747 0000779  98.0080 262.1232 15.01264785131617
STARLINK-4324           
1 53085U 22077AU  24337.74582847  .00000186  00000+0  19060-4 0  9997
2 53085  97.6525 156.1709 0000909  86.2097 273.9231 15.01259876131619
STARLINK-4318           
1 53086U 22077AV  24337.74928461 -.00000123  00000+0 -49964-5 0  9994
2 53086  97.6524 156.1718 0000802 108.3676 251.7636 15.01261883131614
STARLINK-4329           
1 53087U 22077AW  24337.74743623  .00003000  00000+0  23818-3 0  9993
2 53087  97.6531 156.1612 0000216  96.1872 263.9377 15.01246099131616
STARLINK-4333           
1 53088U 22077AX  24337.74557921  .00000620  00000+0  52847-4 0  9998
2 53088  97.6533 156.1670 0000357 261.9975  98.1209 15.01262271131617
TIANLIAN 2-03           
1 53100U 22078A   24337.77040340  .00000099  00000+0  00000+0 0  9998
2 53100   0.7939 279.0221 0002800 345.7468  95.2303  1.00272556  8928
LARES-2                 
1 53105U 22080A   24337.58390464  .00000026  00000+0  00000+0 0  9990
2 53105  70.1378 137.9473 0004834  99.7980 260.3106  6.38965275 55781
GREENCUBE               
1 53106U 22080B   24331.77042742 -.00000003  00000+0  00000+0 0  9995
2 53106  70.1300 136.0386 0008362  70.8561 289.3004  6.42557781 55710
ROBUSTA-1F (MTCUBE 2)   
1 53109U 22080E   24337.80413957 -.00000003  00000+0  00000+0 0  9998
2 53109  70.1155 133.4920 0008336  51.6446 308.4962  6.42584238 55999
SUPERVIEW NEO-2 01      
1 53128U 22082A   24337.90428038  .00015725  00000+0  64155-3 0  9999
2 53128  97.3922 344.2704 0001755  89.0103 271.1336 15.24509121132690
SUPERVIEW NEO-2 02      
1 53130U 22082C   24337.92760091  .00014868  00000+0  60681-3 0  9999
2 53130  97.3920 344.3488 0001815  89.5551 270.5894 15.24510208132702
